[{"OBJECT_NAME":"STARLINK-34740","OBJECT_ID":"2025-158K","EPOCH":"2026-03-09T14:10:40.903680","MEAN_MOTION":15.0562128,"ECCENTRICITY":0.000283,"INCLINATION":97.6011,"RA_OF_ASC_NODE":294.0305,"ARG_OF_PERICENTER":93.1107,"MEAN_ANOMALY":267.0444,"EPHEMERIS_TYPE":0,"CLASSIFICATION_TYPE":"U","NORAD_CAT_ID":64941,"ELEMENT_SET_NO":999,"REV_AT_EPOCH":3528,"BSTAR":-0.00011046,"MEAN_MOTION_DOT":-1.653e-5,"MEAN_MOTION_DDOT":0},{"OBJECT_NAME":"CZ-6A R\/B","OBJECT_ID":"2024-126D","EPOCH":"2026-03-09T19:23:06.789408","MEAN_MOTION":15.13279149,"ECCENTRICITY":0.00704729,"INCLINATION":97.7886,"RA_OF_ASC_NODE":97.6113,"ARG_OF_PERICENTER":100.2752,"MEAN_ANOMALY":260.6434,"EPHEMERIS_TYPE":0,"CLASSIFICATION_TYPE":"U","NORAD_CAT_ID":60214,"ELEMENT_SET_NO":999,"REV_AT_EPOCH":9240,"BSTAR":0.00030839807,"MEAN_MOTION_DOT":5.76e-5,"MEAN_MOTION_DDOT":0}]
